{
  "type": "FeatureCollection",
  "features": [
    {
      "type": "Feature",
      "properties": {
        "norad_id": 30199,
        "name": "FENGYUN 1C DEB",
        "group": "fengyun-1c-debris",
        "lat": 11.992612789942415,
        "lon": -175.47496936297162,
        "alt_km": 818.7772236158971,
        "timestamp": "2025-12-04T19:33:59.878071+00:00",
        "meta_object_name": "FENGYUN 1C DEB",
        "meta_object_id": "1999-025VG",
        "meta_epoch": "2025-12-03T13:29:40.330176",
        "meta_mean_motion": 14.38422229,
        "meta_eccentricity": 0.00780901,
        "meta_inclination": 98.3857,
        "meta_ra_of_asc_node": 1.5056,
        "meta_arg_of_pericenter": 336.4778,
        "meta_mean_anomaly": 186.791,
        "meta_ephemeris_type": 0,
        "meta_classification_type": "U",
        "meta_norad_cat_id": 30199,
        "meta_element_set_no": 999,
        "meta_rev_at_epoch": 98278,
        "meta_bstar": 0.0014587392,
        "meta_mean_motion_dot": 4.568e-05,
        "meta_mean_motion_ddot": 0,
        "tle_line1": "1 30199U 99025VG  25337.56227234  .00004568  00000+0  14587-2 0  9997",
        "tle_line2": "2 30199  98.3857   1.5056 0078090 336.4778 186.7910 14.38422229982786"
      },
      "geometry": {
        "type": "Point",
        "coordinates": [
          -175.47496936297162,
          11.992612789942415
        ]
      }
    },
    {
      "type": "Feature",
      "properties": {
        "norad_id": 30200,
        "name": "FENGYUN 1C DEB",
        "group": "fengyun-1c-debris",
        "lat": -62.295522210698245,
        "lon": -24.498607632286337,
        "alt_km": 879.7528763915798,
        "timestamp": "2025-12-04T19:33:59.878080+00:00",
        "meta_object_name": "FENGYUN 1C DEB",
        "meta_object_id": "1999-025VH",
        "meta_epoch": "2025-12-03T12:02:47.822496",
        "meta_mean_motion": 14.22265285,
        "meta_eccentricity": 0.01474155,
        "meta_inclination": 99.1134,
        "meta_ra_of_asc_node": 171.9431,
        "meta_arg_of_pericenter": 125.5269,
        "meta_mean_anomaly": 235.9758,
        "meta_ephemeris_type": 0,
        "meta_classification_type": "U",
        "meta_norad_cat_id": 30200,
        "meta_element_set_no": 999,
        "meta_rev_at_epoch": 97851,
        "meta_bstar": 0.0002214041,
        "meta_mean_motion_dot": 5.03e-06,
        "meta_mean_motion_ddot": 0,
        "tle_line1": "1 30200U 99025VH  25337.50194239  .00000503  00000+0  22140-3 0  9992",
        "tle_line2": "2 30200  99.1134 171.9431 0147415 125.5269 235.9758 14.22265285978518"
      },
      "geometry": {
        "type": "Point",
        "coordinates": [
          -24.498607632286337,
          -62.295522210698245
        ]
      }
    },
    {
      "type": "Feature",
      "properties": {
        "norad_id": 30201,
        "name": "FENGYUN 1C DEB",
        "group": "fengyun-1c-debris",
        "lat": 45.20337006727197,
        "lon": -57.89666600066111,
        "alt_km": 830.8153699844934,
        "timestamp": "2025-12-04T19:33:59.878088+00:00",
        "meta_object_name": "FENGYUN 1C DEB",
        "meta_object_id": "1999-025VJ",
        "meta_epoch": "2025-12-04T02:03:47.647296",
        "meta_mean_motion": 14.22914546,
        "meta_eccentricity": 0.00288605,
        "meta_inclination": 99.4008,
        "meta_ra_of_asc_node": 111.7208,
        "meta_arg_of_pericenter": 337.8557,
        "meta_mean_anomaly": 22.137,
        "meta_ephemeris_type": 0,
        "meta_classification_type": "U",
        "meta_norad_cat_id": 30201,
        "meta_element_set_no": 999,
        "meta_rev_at_epoch": 97704,
        "meta_bstar": 0.00078006811,
        "meta_mean_motion_dot": 1.712e-05,
        "meta_mean_motion_ddot": 0,
        "tle_line1": "1 30201U 99025VJ  25338.08596814  .00001712  00000+0  78007-3 0  9998",
        "tle_line2": "2 30201  99.4008 111.7208 0028860 337.8557  22.1370 14.22914546977040"
      },
      "geometry": {
        "type": "Point",
        "coordinates": [
          -57.89666600066111,
          45.20337006727197
        ]
      }
    },
    {
      "type": "Feature",
      "properties": {
        "norad_id": 30202,
        "name": "FENGYUN 1C DEB",
        "group": "fengyun-1c-debris",
        "lat": -2.624477914847643,
        "lon": 76.27411770392669,
        "alt_km": 719.8932510754157,
        "timestamp": "2025-12-04T19:33:59.878097+00:00",
        "meta_object_name": "FENGYUN 1C DEB",
        "meta_object_id": "1999-025VK",
        "meta_epoch": "2025-12-04T06:20:57.245280",
        "meta_mean_motion": 14.52123213,
        "meta_eccentricity": 0.00396264,
        "meta_inclination": 98.6413,
        "meta_ra_of_asc_node": 75.3082,
        "meta_arg_of_pericenter": 85.215,
        "meta_mean_anomaly": 275.3567,
        "meta_ephemeris_type": 0,
        "meta_classification_type": "U",
        "meta_norad_cat_id": 30202,
        "meta_element_set_no": 999,
        "meta_rev_at_epoch": 98166,
        "meta_bstar": 0.0061609543,
        "meta_mean_motion_dot": 0.00025252,
        "meta_mean_motion_ddot": 0,
        "tle_line1": "1 30202U 99025VK  25338.26455145  .00025252  00000+0  61610-2 0  9996",
        "tle_line2": "2 30202  98.6413  75.3082 0039626  85.2150 275.3567 14.52123213981661"
      },
      "geometry": {
        "type": "Point",
        "coordinates": [
          76.27411770392669,
          -2.624477914847643
        ]
      }
    },
    {
      "type": "Feature",
      "properties": {
        "norad_id": 30205,
        "name": "FENGYUN 1C DEB",
        "group": "fengyun-1c-debris",
        "lat": 76.0160491148542,
        "lon": 50.92435640873478,
        "alt_km": 974.3115113688491,
        "timestamp": "2025-12-04T19:33:59.878106+00:00",
        "meta_object_name": "FENGYUN 1C DEB",
        "meta_object_id": "1999-025VN",
        "meta_epoch": "2025-12-04T07:20:33.711072",
        "meta_mean_motion": 13.88030089,
        "meta_eccentricity": 0.01206899,
        "meta_inclination": 98.9968,
        "meta_ra_of_asc_node": 89.94,
        "meta_arg_of_pericenter": 202.6443,
        "meta_mean_anomaly": 214.1085,
        "meta_ephemeris_type": 0,
        "meta_classification_type": "U",
        "meta_norad_cat_id": 30205,
        "meta_element_set_no": 999,
        "meta_rev_at_epoch": 95521,
        "meta_bstar": 0.00067008247,
        "meta_mean_motion_dot": 8.03e-06,
        "meta_mean_motion_ddot": 0,
        "tle_line1": "1 30205U 99025VN  25338.30594573  .00000803  00000+0  67008-3 0  9996",
        "tle_line2": "2 30205  98.9968  89.9400 0120689 202.6443 214.1085 13.88030089955211"
      },
      "geometry": {
        "type": "Point",
        "coordinates": [
          50.92435640873478,
          76.0160491148542
        ]
      }
    },
    {
      "type": "Feature",
      "properties": {
        "norad_id": 30206,
        "name": "FENGYUN 1C DEB",
        "group": "fengyun-1c-debris",
        "lat": 67.78631210991533,
        "lon": -42.49033924762748,
        "alt_km": 619.0849975743013,
        "timestamp": "2025-12-04T19:33:59.878115+00:00",
        "meta_object_name": "FENGYUN 1C DEB",
        "meta_object_id": "1999-025VP",
        "meta_epoch": "2025-12-03T23:22:11.981856",
        "meta_mean_motion": 14.49099328,
        "meta_eccentricity": 0.01464702,
        "meta_inclination": 98.2309,
        "meta_ra_of_asc_node": 337.4483,
        "meta_arg_of_pericenter": 62.967,
        "meta_mean_anomaly": 298.6388,
        "meta_ephemeris_type": 0,
        "meta_classification_type": "U",
        "meta_norad_cat_id": 30206,
        "meta_element_set_no": 999,
        "meta_rev_at_epoch": 99274,
        "meta_bstar": 0.00083566783,
        "meta_mean_motion_dot": 3.593e-05,
        "meta_mean_motion_ddot": 0,
        "tle_line1": "1 30206U 99025VP  25337.97374979  .00003593  00000+0  83567-3 0  9992",
        "tle_line2": "2 30206  98.2309 337.4483 0146470  62.9670 298.6388 14.49099328992742"
      },
      "geometry": {
        "type": "Point",
        "coordinates": [
          -42.49033924762748,
          67.78631210991533
        ]
      }
    },
    {
      "type": "Feature",
      "properties": {
        "norad_id": 30207,
        "name": "FENGYUN 1C DEB",
        "group": "fengyun-1c-debris",
        "lat": -54.214380443471015,
        "lon": -101.82160650182111,
        "alt_km": 889.9922295703554,
        "timestamp": "2025-12-04T19:33:59.878124+00:00",
        "meta_object_name": "FENGYUN 1C DEB",
        "meta_object_id": "1999-025VQ",
        "meta_epoch": "2025-12-04T06:31:57.189216",
        "meta_mean_motion": 13.79126557,
        "meta_eccentricity": 0.02602731,
        "meta_inclination": 98.574,
        "meta_ra_of_asc_node": 89.7669,
        "meta_arg_of_pericenter": 171.2177,
        "meta_mean_anomaly": 246.2679,
        "meta_ephemeris_type": 0,
        "meta_classification_type": "U",
        "meta_norad_cat_id": 30207,
        "meta_element_set_no": 999,
        "meta_rev_at_epoch": 94946,
        "meta_bstar": 0.00059521142,
        "meta_mean_motion_dot": 7.47e-06,
        "meta_mean_motion_ddot": 0,
        "tle_line1": "1 30207U 99025VQ  25338.27218969  .00000747  00000+0  59521-3 0  9994",
        "tle_line2": "2 30207  98.5740  89.7669 0260273 171.2177 246.2679 13.79126557949462"
      },
      "geometry": {
        "type": "Point",
        "coordinates": [
          -101.82160650182111,
          -54.214380443471015
        ]
      }
    }
  ]
}